[{"OBJECT_NAME":"TIANHUI 6A","OBJECT_ID":"2023-030A","EPOCH":"2026-03-09T23:27:00.729792","MEAN_MOTION":14.01332353,"ECCENTRICITY":0.00012385,"INCLINATION":99.0142,"RA_OF_ASC_NODE":78.4448,"ARG_OF_PERICENTER":173.8097,"MEAN_ANOMALY":186.3084,"EPHEMERIS_TYPE":0,"CLASSIFICATION_TYPE":"U","NORAD_CAT_ID":55836,"ELEMENT_SET_NO":999,"REV_AT_EPOCH":15350,"BSTAR":-9.2358714e-5,"MEAN_MOTION_DOT":-1.83e-6,"MEAN_MOTION_DDOT":0},{"OBJECT_NAME":"SL-3 R\/B","OBJECT_ID":"1974-025B","EPOCH":"2026-03-09T15:24:09.844704","MEAN_MOTION":14.07078166,"ECCENTRICITY":0.0056304,"INCLINATION":81.2406,"RA_OF_ASC_NODE":109.291,"ARG_OF_PERICENTER":265.4008,"MEAN_ANOMALY":94.0729,"EPHEMERIS_TYPE":0,"CLASSIFICATION_TYPE":"U","NORAD_CAT_ID":7275,"ELEMENT_SET_NO":999,"REV_AT_EPOCH":66119,"BSTAR":0.0001228,"MEAN_MOTION_DOT":2.2e-6,"MEAN_MOTION_DDOT":0}]
